MALLIGYONG-1            
1 58400U 23179A   24149.52077459  .00005365  00000+0  23251-3 0  9992
2 58400  97.4058  36.6838 0008224 342.6138  17.4816 15.22771975 28732
